[{"OBJECT_NAME":"COSMOS 2503","OBJECT_ID":"2015-009A","EPOCH":"2026-03-09T16:42:37.703808","MEAN_MOTION":15.06275973,"ECCENTRICITY":0.00153206,"INCLINATION":97.8437,"RA_OF_ASC_NODE":123.7175,"ARG_OF_PERICENTER":225.745,"MEAN_ANOMALY":134.252,"EPHEMERIS_TYPE":0,"CLASSIFICATION_TYPE":"U","NORAD_CAT_ID":40420,"ELEMENT_SET_NO":999,"REV_AT_EPOCH":60395,"BSTAR":0.00019589832,"MEAN_MOTION_DOT":2.817e-5,"MEAN_MOTION_DDOT":0},{"OBJECT_NAME":"STARLINK-6334","OBJECT_ID":"2023-094W","EPOCH":"2026-03-09T05:12:12.864384","MEAN_MOTION":15.02533262,"ECCENTRICITY":0.00017208,"INCLINATION":43.0061,"RA_OF_ASC_NODE":20.339,"ARG_OF_PERICENTER":259.4052,"MEAN_ANOMALY":100.6597,"EPHEMERIS_TYPE":0,"CLASSIFICATION_TYPE":"U","NORAD_CAT_ID":57238,"ELEMENT_SET_NO":999,"REV_AT_EPOCH":14719,"BSTAR":2.2545842e-5,"MEAN_MOTION_DOT":1.01e-6,"MEAN_MOTION_DDOT":0}]
